{
  "type": "FeatureCollection",
  "features": [
    {
      "type": "Feature",
      "properties": {
        "norad_id": 31565,
        "name": "FENGYUN 1C DEB",
        "group": "fengyun-1c-debris",
        "lat": -75.44518219976369,
        "lon": -17.374525561728895,
        "alt_km": 801.2643068581883,
        "timestamp": "2025-12-05T04:52:15.574843+00:00",
        "meta_object_name": "FENGYUN 1C DEB",
        "meta_object_id": "1999-025BZG",
        "meta_epoch": "2025-11-29T09:07:25.735008",
        "meta_mean_motion": 14.38541647,
        "meta_eccentricity": 0.00553237,
        "meta_inclination": 100.7173,
        "meta_ra_of_asc_node": 202.2097,
        "meta_arg_of_pericenter": 58.3475,
        "meta_mean_anomaly": 302.3085,
        "meta_ephemeris_type": 0,
        "meta_classification_type": "U",
        "meta_norad_cat_id": 31565,
        "meta_element_set_no": 999,
        "meta_rev_at_epoch": 64161,
        "meta_bstar": 0.0030186467,
        "meta_mean_motion_dot": 9.348e-05,
        "meta_mean_motion_ddot": 0,
        "tle_line1": "1 31565U 99025BZG 25333.38015897  .00009348  00000+0  30186-2 0  9995",
        "tle_line2": "2 31565 100.7173 202.2097 0055323  58.3475 302.3085 14.38541647641615"
      },
      "geometry": {
        "type": "Point",
        "coordinates": [
          -17.374525561728895,
          -75.44518219976369
        ]
      }
    },
    {
      "type": "Feature",
      "properties": {
        "norad_id": 31566,
        "name": "FENGYUN 1C DEB",
        "group": "fengyun-1c-debris",
        "lat": -6.591820588522947,
        "lon": 38.86043717220754,
        "alt_km": 756.4828785493628,
        "timestamp": "2025-12-05T04:52:15.574852+00:00",
        "meta_object_name": "FENGYUN 1C DEB",
        "meta_object_id": "1999-025BZH",
        "meta_epoch": "2025-12-04T10:35:24.609120",
        "meta_mean_motion": 14.37241094,
        "meta_eccentricity": 0.0023131,
        "meta_inclination": 98.95,
        "meta_ra_of_asc_node": 37.0249,
        "meta_arg_of_pericenter": 22.0635,
        "meta_mean_anomaly": 352.6159,
        "meta_ephemeris_type": 0,
        "meta_classification_type": "U",
        "meta_norad_cat_id": 31566,
        "meta_element_set_no": 999,
        "meta_rev_at_epoch": 96272,
        "meta_bstar": 0.0050885,
        "meta_mean_motion_dot": 0.0001519,
        "meta_mean_motion_ddot": 0,
        "tle_line1": "1 31566U 99025BZH 25338.44125705  .00015190  00000+0  50885-2 0  9998",
        "tle_line2": "2 31566  98.9500  37.0249 0023131  22.0635 352.6159 14.37241094962729"
      },
      "geometry": {
        "type": "Point",
        "coordinates": [
          38.86043717220754,
          -6.591820588522947
        ]
      }
    },
    {
      "type": "Feature",
      "properties": {
        "norad_id": 31567,
        "name": "FENGYUN 1C DEB",
        "group": "fengyun-1c-debris",
        "lat": 45.079831812918286,
        "lon": -169.21984538829574,
        "alt_km": 888.4204716261265,
        "timestamp": "2025-12-05T04:52:15.574861+00:00",
        "meta_object_name": "FENGYUN 1C DEB",
        "meta_object_id": "1999-025BZJ",
        "meta_epoch": "2025-12-04T11:24:48.506688",
        "meta_mean_motion": 13.92770153,
        "meta_eccentricity": 0.0187413,
        "meta_inclination": 102.3178,
        "meta_ra_of_asc_node": 202.472,
        "meta_arg_of_pericenter": 328.3476,
        "meta_mean_anomaly": 30.6511,
        "meta_ephemeris_type": 0,
        "meta_classification_type": "U",
        "meta_norad_cat_id": 31567,
        "meta_element_set_no": 999,
        "meta_rev_at_epoch": 67294,
        "meta_bstar": 0.0072625,
        "meta_mean_motion_dot": 0.00010805,
        "meta_mean_motion_ddot": 0,
        "tle_line1": "1 31567U 99025BZJ 25338.47556142  .00010805  00000+0  72625-2 0  9999",
        "tle_line2": "2 31567 102.3178 202.4720 0187413 328.3476  30.6511 13.92770153672942"
      },
      "geometry": {
        "type": "Point",
        "coordinates": [
          -169.21984538829574,
          45.079831812918286
        ]
      }
    },
    {
      "type": "Feature",
      "properties": {
        "norad_id": 31568,
        "name": "FENGYUN 1C DEB",
        "group": "fengyun-1c-debris",
        "lat": -60.65018189644436,
        "lon": -118.78237308034673,
        "alt_km": 970.5064774015782,
        "timestamp": "2025-12-05T04:52:15.574870+00:00",
        "meta_object_name": "FENGYUN 1C DEB",
        "meta_object_id": "1999-025BZK",
        "meta_epoch": "2025-11-27T22:38:02.918112",
        "meta_mean_motion": 14.03182798,
        "meta_eccentricity": 0.0121792,
        "meta_inclination": 102.0468,
        "meta_ra_of_asc_node": 209.318,
        "meta_arg_of_pericenter": 158.3893,
        "meta_mean_anomaly": 202.2464,
        "meta_ephemeris_type": 0,
        "meta_classification_type": "U",
        "meta_norad_cat_id": 31568,
        "meta_element_set_no": 999,
        "meta_rev_at_epoch": 94372,
        "meta_bstar": 0.0028015,
        "meta_mean_motion_dot": 4.595e-05,
        "meta_mean_motion_ddot": 0,
        "tle_line1": "1 31568U 99025BZK 25331.94308933  .00004595  00000+0  28015-2 0  9991",
        "tle_line2": "2 31568 102.0468 209.3180 0121792 158.3893 202.2464 14.03182798943726"
      },
      "geometry": {
        "type": "Point",
        "coordinates": [
          -118.78237308034673,
          -60.65018189644436
        ]
      }
    },
    {
      "type": "Feature",
      "properties": {
        "norad_id": 31569,
        "name": "FENGYUN 1C DEB",
        "group": "fengyun-1c-debris",
        "lat": -30.92077051207285,
        "lon": 141.38319741513112,
        "alt_km": 843.5918364140271,
        "timestamp": "2025-12-05T04:52:15.574880+00:00",
        "meta_object_name": "FENGYUN 1C DEB",
        "meta_object_id": "1999-025BZL",
        "meta_epoch": "2025-11-30T05:24:01.468800",
        "meta_mean_motion": 13.95405103,
        "meta_eccentricity": 0.01728622,
        "meta_inclination": 102.6164,
        "meta_ra_of_asc_node": 126.885,
        "meta_arg_of_pericenter": 36.2337,
        "meta_mean_anomaly": 138.7821,
        "meta_ephemeris_type": 0,
        "meta_classification_type": "U",
        "meta_norad_cat_id": 31569,
        "meta_element_set_no": 999,
        "meta_rev_at_epoch": 93504,
        "meta_bstar": 0.0023090613,
        "meta_mean_motion_dot": 3.477e-05,
        "meta_mean_motion_ddot": 0,
        "tle_line1": "1 31569U 99025BZL 25334.22501700  .00003477  00000+0  23091-2 0  9990",
        "tle_line2": "2 31569 102.6164 126.8850 0172862  36.2337 138.7821 13.95405103935048"
      },
      "geometry": {
        "type": "Point",
        "coordinates": [
          141.38319741513112,
          -30.92077051207285
        ]
      }
    },
    {
      "type": "Feature",
      "properties": {
        "norad_id": 31570,
        "name": "FENGYUN 1C DEB",
        "group": "fengyun-1c-debris",
        "lat": 52.09824219547858,
        "lon": -148.43960579039367,
        "alt_km": 849.5173572778394,
        "timestamp": "2025-12-05T04:52:15.574890+00:00",
        "meta_object_name": "FENGYUN 1C DEB",
        "meta_object_id": "1999-025BZM",
        "meta_epoch": "2025-11-25T06:40:18.493248",
        "meta_mean_motion": 14.24909801,
        "meta_eccentricity": 0.01526257,
        "meta_inclination": 102.5663,
        "meta_ra_of_asc_node": 0.7562,
        "meta_arg_of_pericenter": 266.5584,
        "meta_mean_anomaly": 91.8112,
        "meta_ephemeris_type": 0,
        "meta_classification_type": "U",
        "meta_norad_cat_id": 31570,
        "meta_element_set_no": 999,
        "meta_rev_at_epoch": 63118,
        "meta_bstar": 0.0023713757,
        "meta_mean_motion_dot": 6.183e-05,
        "meta_mean_motion_ddot": 0,
        "tle_line1": "1 31570U 99025BZM 25329.27799182  .00006183  00000+0  23714-2 0  9993",
        "tle_line2": "2 31570 102.5663   0.7562 0152625 266.5584  91.8112 14.24909801631187"
      },
      "geometry": {
        "type": "Point",
        "coordinates": [
          -148.43960579039367,
          52.09824219547858
        ]
      }
    },
    {
      "type": "Feature",
      "properties": {
        "norad_id": 31608,
        "name": "FENGYUN 1C DEB",
        "group": "fengyun-1c-debris",
        "lat": 22.165838080667317,
        "lon": 93.50149722253302,
        "alt_km": 531.3285025870136,
        "timestamp": "2025-12-05T04:52:15.574899+00:00",
        "meta_object_name": "FENGYUN 1C DEB",
        "meta_object_id": "1999-025BZN",
        "meta_epoch": "2025-12-04T14:13:29.603136",
        "meta_mean_motion": 14.85679772,
        "meta_eccentricity": 0.0146671,
        "meta_inclination": 98.3801,
        "meta_ra_of_asc_node": 96.302,
        "meta_arg_of_pericenter": 63.9077,
        "meta_mean_anomaly": 297.7147,
        "meta_ephemeris_type": 0,
        "meta_classification_type": "U",
        "meta_norad_cat_id": 31608,
        "meta_element_set_no": 999,
        "meta_rev_at_epoch": 98512,
        "meta_bstar": 0.0015593,
        "meta_mean_motion_dot": 0.00016394,
        "meta_mean_motion_ddot": 0,
        "tle_line1": "1 31608U 99025BZN 25338.59270374  .00016394  00000+0  15593-2 0  9998",
        "tle_line2": "2 31608  98.3801  96.3020 0146671  63.9077 297.7147 14.85679772985124"
      },
      "geometry": {
        "type": "Point",
        "coordinates": [
          93.50149722253302,
          22.165838080667317
        ]
      }
    }
  ]
}